[{"OBJECT_NAME":"STARLINK-6141","OBJECT_ID":"2023-090M","EPOCH":"2026-03-08T23:22:47.386848","MEAN_MOTION":15.02533141,"ECCENTRICITY":0.00012016,"INCLINATION":43.0026,"RA_OF_ASC_NODE":278.7203,"ARG_OF_PERICENTER":259.6416,"MEAN_ANOMALY":100.4291,"EPHEMERIS_TYPE":0,"CLASSIFICATION_TYPE":"U","NORAD_CAT_ID":57112,"ELEMENT_SET_NO":999,"REV_AT_EPOCH":15030,"BSTAR":5.3276378e-5,"MEAN_MOTION_DOT":5.16e-6,"MEAN_MOTION_DDOT":0},{"OBJECT_NAME":"IRIDIUM 33 DEB","OBJECT_ID":"1997-051GB","EPOCH":"2026-03-09T18:44:19.060224","MEAN_MOTION":15.02189476,"ECCENTRICITY":0.0010038,"INCLINATION":86.3931,"RA_OF_ASC_NODE":331.664,"ARG_OF_PERICENTER":138.3098,"MEAN_ANOMALY":291.9123,"EPHEMERIS_TYPE":0,"CLASSIFICATION_TYPE":"U","NORAD_CAT_ID":34486,"ELEMENT_SET_NO":999,"REV_AT_EPOCH":90290,"BSTAR":0.0023709806,"MEAN_MOTION_DOT":0.00031372,"MEAN_MOTION_DDOT":0}]
